{
  "type": "FeatureCollection",
  "features": [
    {
      "type": "Feature",
      "properties": {
        "norad_id": 38867,
        "name": "INTELSAT 23 (IS-23)",
        "group": "intelsat",
        "lat": -0.002349707928669071,
        "lon": -117.14062985816743,
        "alt_km": 35780.48611110534,
        "timestamp": "2025-12-07T14:37:04.877193+00:00",
        "meta_object_name": "INTELSAT 23 (IS-23)",
        "meta_object_id": "2012-057A",
        "meta_epoch": "2025-12-06T11:42:00.871776",
        "meta_mean_motion": 1.00267666,
        "meta_eccentricity": 0.00016876,
        "meta_inclination": 0.0474,
        "meta_ra_of_asc_node": 98.6565,
        "meta_arg_of_pericenter": 128.5865,
        "meta_mean_anomaly": 330.7637,
        "meta_ephemeris_type": 0,
        "meta_classification_type": "U",
        "meta_norad_cat_id": 38867,
        "meta_element_set_no": 999,
        "meta_rev_at_epoch": 4802,
        "meta_bstar": 0,
        "meta_mean_motion_dot": -2.78e-06,
        "meta_mean_motion_ddot": 0,
        "tle_line1": "1 38867U 12057A   25340.48751009 -.00000278  00000+0  00000+0 0  9991",
        "tle_line2": "2 38867   0.0474  98.6565 0001687 128.5865 330.7637  1.00267666 48022"
      },
      "geometry": {
        "type": "Point",
        "coordinates": [
          -117.14062985816743,
          -0.002349707928669071
        ]
      }
    },
    {
      "type": "Feature",
      "properties": {
        "norad_id": 39360,
        "name": "FM-6",
        "group": "intelsat",
        "lat": -0.00020625177857458072,
        "lon": 179.74888805067764,
        "alt_km": 35773.90817968562,
        "timestamp": "2025-12-07T14:37:04.877205+00:00",
        "meta_object_name": "FM-6",
        "meta_object_id": "2013-058A",
        "meta_epoch": "2025-12-06T21:40:25.667904",
        "meta_mean_motion": 1.00269931,
        "meta_eccentricity": 0.00030394,
        "meta_inclination": 0.0018,
        "meta_ra_of_asc_node": 52.0479,
        "meta_arg_of_pericenter": 121.0655,
        "meta_mean_anomaly": 111.7842,
        "meta_ephemeris_type": 0,
        "meta_classification_type": "U",
        "meta_norad_cat_id": 39360,
        "meta_element_set_no": 999,
        "meta_rev_at_epoch": 4414,
        "meta_bstar": 0,
        "meta_mean_motion_dot": -1.1e-07,
        "meta_mean_motion_ddot": 0,
        "tle_line1": "1 39360U 13058A   25340.90307486 -.00000011  00000+0  00000+0 0  9990",
        "tle_line2": "2 39360   0.0018  52.0479 0003039 121.0655 111.7842  1.00269931 44142"
      },
      "geometry": {
        "type": "Point",
        "coordinates": [
          179.74888805067764,
          -0.00020625177857458072
        ]
      }
    },
    {
      "type": "Feature",
      "properties": {
        "norad_id": 40271,
        "name": "INTELSAT 30 (IS-30)",
        "group": "intelsat",
        "lat": -0.011256239786904307,
        "lon": -159.15713062987226,
        "alt_km": 35788.42869863023,
        "timestamp": "2025-12-07T14:37:04.877217+00:00",
        "meta_object_name": "INTELSAT 30 (IS-30)",
        "meta_object_id": "2014-062A",
        "meta_epoch": "2025-12-06T21:46:25.093632",
        "meta_mean_motion": 1.00269108,
        "meta_eccentricity": 0.0001117,
        "meta_inclination": 0.014,
        "meta_ra_of_asc_node": 17.4441,
        "meta_arg_of_pericenter": 74.1595,
        "meta_mean_anomaly": 215.8838,
        "meta_ephemeris_type": 0,
        "meta_classification_type": "U",
        "meta_norad_cat_id": 40271,
        "meta_element_set_no": 999,
        "meta_rev_at_epoch": 485,
        "meta_bstar": 0,
        "meta_mean_motion_dot": -1.45e-06,
        "meta_mean_motion_ddot": 0,
        "tle_line1": "1 40271U 14062A   25340.90723488 -.00000145  00000+0  00000+0 0  9991",
        "tle_line2": "2 40271   0.0140  17.4441 0001117  74.1595 215.8838  1.00269108  4852"
      },
      "geometry": {
        "type": "Point",
        "coordinates": [
          -159.15713062987226,
          -0.011256239786904307
        ]
      }
    },
    {
      "type": "Feature",
      "properties": {
        "norad_id": 40333,
        "name": "DIRECTV 14",
        "group": "intelsat",
        "lat": -0.025253143185752606,
        "lon": -163.33172971858025,
        "alt_km": 35785.289400408496,
        "timestamp": "2025-12-07T14:37:04.877229+00:00",
        "meta_object_name": "DIRECTV 14",
        "meta_object_id": "2014-078B",
        "meta_epoch": "2025-12-06T21:45:17.700768",
        "meta_mean_motion": 1.00270142,
        "meta_eccentricity": 3.39e-05,
        "meta_inclination": 0.0178,
        "meta_ra_of_asc_node": 339.7021,
        "meta_arg_of_pericenter": 243.8645,
        "meta_mean_anomaly": 79.476,
        "meta_ephemeris_type": 0,
        "meta_classification_type": "U",
        "meta_norad_cat_id": 40333,
        "meta_element_set_no": 999,
        "meta_rev_at_epoch": 4011,
        "meta_bstar": 0,
        "meta_mean_motion_dot": -1.2e-06,
        "meta_mean_motion_ddot": 0,
        "tle_line1": "1 40333U 14078B   25340.90645487 -.00000120  00000+0  00000+0 0  9992",
        "tle_line2": "2 40333   0.0178 339.7021 0000339 243.8645  79.4760  1.00270142 40119"
      },
      "geometry": {
        "type": "Point",
        "coordinates": [
          -163.33172971858025,
          -0.025253143185752606
        ]
      }
    },
    {
      "type": "Feature",
      "properties": {
        "norad_id": 40663,
        "name": "DIRECTV 15",
        "group": "intelsat",
        "lat": 0.017301395889407083,
        "lon": -166.973360796751,
        "alt_km": 35785.03963327397,
        "timestamp": "2025-12-07T14:37:04.877241+00:00",
        "meta_object_name": "DIRECTV 15",
        "meta_object_id": "2015-026A",
        "meta_epoch": "2025-12-06T21:44:10.308768",
        "meta_mean_motion": 1.00270123,
        "meta_eccentricity": 4.561e-05,
        "meta_inclination": 0.0385,
        "meta_ra_of_asc_node": 80.1364,
        "meta_arg_of_pericenter": 150.8974,
        "meta_mean_anomaly": 68.0869,
        "meta_ephemeris_type": 0,
        "meta_classification_type": "U",
        "meta_norad_cat_id": 40663,
        "meta_element_set_no": 999,
        "meta_rev_at_epoch": 3853,
        "meta_bstar": 0,
        "meta_mean_motion_dot": -9.7e-07,
        "meta_mean_motion_ddot": 0,
        "tle_line1": "1 40663U 15026A   25340.90567487 -.00000097  00000+0  00000+0 0  9998",
        "tle_line2": "2 40663   0.0385  80.1364 0000456 150.8974  68.0869  1.00270123 38530"
      },
      "geometry": {
        "type": "Point",
        "coordinates": [
          -166.973360796751,
          0.017301395889407083
        ]
      }
    },
    {
      "type": "Feature",
      "properties": {
        "norad_id": 40664,
        "name": "SKY MEXICO-1",
        "group": "intelsat",
        "lat": -0.013336497663558704,
        "lon": -142.898282186833,
        "alt_km": 35779.25792081638,
        "timestamp": "2025-12-07T14:37:04.877253+00:00",
        "meta_object_name": "SKY MEXICO-1",
        "meta_object_id": "2015-026B",
        "meta_epoch": "2025-12-06T21:51:02.150784",
        "meta_mean_motion": 1.00271227,
        "meta_eccentricity": 0.00027824,
        "meta_inclination": 0.0142,
        "meta_ra_of_asc_node": 35.1874,
        "meta_arg_of_pericenter": 235.3287,
        "meta_mean_anomaly": 54.4203,
        "meta_ephemeris_type": 0,
        "meta_classification_type": "U",
        "meta_norad_cat_id": 40664,
        "meta_element_set_no": 999,
        "meta_rev_at_epoch": 3852,
        "meta_bstar": 0,
        "meta_mean_motion_dot": -2.29e-06,
        "meta_mean_motion_ddot": 0,
        "tle_line1": "1 40664U 15026B   25340.91044156 -.00000229  00000+0  00000+0 0  9990",
        "tle_line2": "2 40664   0.0142  35.1874 0002782 235.3287  54.4203  1.00271227 38524"
      },
      "geometry": {
        "type": "Point",
        "coordinates": [
          -142.898282186833,
          -0.013336497663558704
        ]
      }
    },
    {
      "type": "Feature",
      "properties": {
        "norad_id": 40874,
        "name": "INTELSAT 34 (IS-34)",
        "group": "intelsat",
        "lat": -0.034233745434935126,
        "lon": -119.60619582866182,
        "alt_km": 35785.10872754655,
        "timestamp": "2025-12-07T14:37:04.877265+00:00",
        "meta_object_name": "INTELSAT 34 (IS-34)",
        "meta_object_id": "2015-039A",
        "meta_epoch": "2025-12-06T18:32:13.695072",
        "meta_mean_motion": 1.00269269,
        "meta_eccentricity": 7.973e-05,
        "meta_inclination": 0.0124,
        "meta_ra_of_asc_node": 320.2324,
        "meta_arg_of_pericenter": 222.0969,
        "meta_mean_anomaly": 116.0343,
        "meta_ephemeris_type": 0,
        "meta_classification_type": "U",
        "meta_norad_cat_id": 40874,
        "meta_element_set_no": 999,
        "meta_rev_at_epoch": 3769,
        "meta_bstar": 0,
        "meta_mean_motion_dot": -2.79e-06,
        "meta_mean_motion_ddot": 0,
        "tle_line1": "1 40874U 15039A   25340.77238073 -.00000279  00000+0  00000+0 0  9999",
        "tle_line2": "2 40874   0.0124 320.2324 0000797 222.0969 116.0343  1.00269269 37699"
      },
      "geometry": {
        "type": "Point",
        "coordinates": [
          -119.60619582866182,
          -0.034233745434935126
        ]
      }
    }
  ]
}